1 43201U 18016A   18088.93245869  .00536357 -22342-5  97356-3 0  9998
2 43201  30.9089 334.0054 1010521 165.5403 307.2422 13.92294584  7491
1 43201U 18016A   18089.57279207  .00515408 -23380-5  93213-3 0  9997
2 43201  30.9087 330.5070 1007852 171.0398 277.4349 13.92932301  7588
1 43201U 18016A   18089.78465174  .00492644 -23697-5  92138-3 0  9992
2 43201  30.9091 329.3355 1005751 172.8058 259.8075 13.93089648  7615
1 43201U 18016A   18090.00620388  .00493734 -24060-5  92138-3 0  9995
2 43201  30.9091 328.1255 1004876 174.6954 291.0056 13.93308532  7649
1 43201U 18016A   18090.08278938  .00503617 -24155-5  96176-3 0  9996
2 43201  30.9110 327.7103 1003503 175.2521 315.2576 13.93399589  7650
1 43201U 18016A   18090.57748338  .00518434 -24979-5  98434-3 0  9992
2 43201  30.9109 325.0068 1001400 179.4929 277.2438 13.93930752  7726
1 43201U 18016A   18090.86774292  .00522100 -25467-5  97451-3 0  9998
2 43201  30.9117 323.3987 1000751 182.0500 293.9335 13.94240373  7768
1 43201U 18016A   18091.08660363  .00535820 -25826-5  10028-2 0  9992
2 43201  30.9115 322.2118 0999549 183.8766 312.5874 13.94487394  7799
1 43201U 18016A   18091.50511772  .00533497 -26509-5  99166-3 0  9996
2 43201  30.9118 319.9133 0997879 187.4858 253.8995 13.94929887  7854
1 43201U 18016A   18091.79221131  .00525578 -26962-5  97419-3 0  9997
2 43201  30.9122 318.3411 0996737 189.9359 255.7323 13.95214742  7894
1 43201U 18016A   18092.01456965  .00517570 -27332-5  92064-3 0  9994
2 43201  30.9122 317.1451 0997513 191.8899 292.5891 13.95427926  7922
1 43201U 18016A   18092.50915319  .00490911 -28099-5  88894-3 0  9997
2 43201  30.9113 314.4322 0994769 196.1375 257.4886 13.95879815  7995
1 43201U 18016A   18092.65575025  .00479050 -28307-5  88400-3 0  9995
2 43201  30.9118 313.6238 0993471 197.3834 274.1514 13.95994364  8014
1 43201U 18016A   18093.77627156  .00492103 -29948-5  88400-3 0  9998
2 43201  30.9160 307.4753 0989787 206.9390 147.6329 13.97083200  8178
1 43201U 18016A   18093.91913329  .00492257 -30167-5  88400-3 0  9999
2 43201  30.9148 306.6880 0989186 208.1999 146.1437 13.97222095  8191
1 43201U 18016A   18094.56183681  .00502054 -31055-5  88400-3 0  9995
2 43201  30.9165 303.1563 0987151 213.7609 139.6550 13.97869013  8280
1 43201U 18016A   18094.63322278  .00490122 -31119-5  88400-3 0  9993
2 43201  30.9173 302.7717 0985991 214.3259 138.8468 13.97904190  8299
1 43201U 18016A   18094.91879418  .00478737 -31496-5  88400-3 0  9993
2 43201  30.9144 301.1778 0984574 216.7977 135.7559 13.98001242  8335
1 43201U 18016A   18095.41850850  .00467191 -32091-5  88400-3 0  9992
2 43201  30.9140 298.4296 0981529 221.0226 131.1569 13.98456162  8401
1 43201U 18016A   18095.63261714  .00459027 -32324-5  88400-3 0  9999
2 43201  30.9153 297.2438 0979925 222.8878 129.1005 13.98649075  8431
1 43201U 18016A   18095.77533212  .00479860 -32515-5  88400-3 0  9998
2 43201  30.9152 296.4629 0981286 224.0969 127.7043 13.98767694  8457
1 43201U 18016A   18095.84668639  .00473659 -32603-5  88400-3 0  9996
2 43201  30.9148 296.0643 0980452 224.8140 126.8899 13.98831919  8469
1 43201U 18016A   18095.91803858  .00467143 -32684-5  88400-3 0  9998
2 43201  30.9143 295.6649 0979567 225.4778 126.1555 13.98899162  8471
1 43201U 18016A   18096.48872403  .00465239 -33258-5  88400-3 0  9995
2 43201  30.9155 292.5350 0977352 230.2677 120.6405 13.99360912  8550
1 43201U 18016A   18096.63139669  .00466583 -33373-5  88400-3 0  9993
2 43201  30.9180 291.7435 0976934 231.4406 119.4462 13.99483401  8571
1 43201U 18016A   18096.84535117  .00520405 -33648-5  88400-3 0  9993
2 43201  30.9189 290.5727 0980729 233.3073 117.3475 13.99660769  8608
1 43201U 18016A   18096.91666329  .00518306 -33750-5  88400-3 0  9992
2 43201  30.9155 290.1720 0980256 234.0131 116.5696 13.99730019  8611
1 43201U 18016A   18096.98796860  .00516813 -33836-5  88400-3 0  9999
2 43201  30.9134 289.7741 0979821 234.6805 115.8246 13.99801702  8627
1 43201U 18016A   18097.62956683  .00448459 -33913-5  88400-3 0  9998
2 43201  30.9533 286.3179 0971949 239.9695 109.3809 14.00227273  8717
1 43201U 18016A   18097.84356562  .00492417 -34245-5  88400-3 0  9994
2 43201  30.9413 285.1355 0975215 241.8725 107.9978 14.00389034  8741
1 43201U 18016A   18097.91484381  .00498903 -34321-5  88400-3 0  9994
2 43201  30.9398 284.7426 0975478 242.5139 107.2992 14.00453687  8751
1 43201U 18016A   18098.55617824  .00464277 -34815-5  88400-3 0  9990
2 43201  30.9239 281.1333 0970518 248.0111 100.9952 14.00887787  8842
1 43201U 18016A   18098.62752833  .00460064 -34844-5  88400-3 0  9990
2 43201  30.9244 280.7380 0969862 248.6161 100.8278 14.00947976  8854
1 43201U 18016A   18098.84129039  .00495865 -35076-5  88400-3 0  9995
2 43201  30.9172 279.5405 0972347 250.5494  98.7618 14.01104804  8883
1 43201U 18016A   18098.91253563  .00495891 -35120-5  88400-3 0  9992
2 43201  30.9166 279.1458 0972048 251.2165  98.0623 14.01173129  8897
1 43201U 18016A   18099.48236039  .00459373 -35307-5  88400-3 0  9996
2 43201  30.9163 276.0103 0967208 256.0824  92.5378 14.01533904  8970
1 43201U 18016A   18099.55368489  .00449679 -35277-5  88400-3 0  9993
2 43201  30.9207 275.6114 0966091 256.6462  92.4118 14.01578973  8986
1 43201U 18016A   18099.83859566  .00482913 -35446-5  88400-3 0  9991
2 43201  30.9168 274.0469 0968204 259.0740  89.9486 14.01790806  9028
1 43201U 18016A   18100.47938601  .00469951 -35501-5  88400-3 0  9991
2 43201  30.9233 270.4841 0965017 264.7039  83.9003 14.02251046  9116
1 43201U 18016A   18100.62184693  .00470315 -35525-5  88400-3 0  9994
2 43201  30.9223 269.7029 0964513 265.8561  83.1377 14.02372691  9134
1 43201U 18016A   18100.83539812  .00497172 -35591-5  88400-3 0  9997
2 43201  30.9206 268.5016 0966041 267.8036  81.1818 14.02559172  9167
1 43201U 18016A   18100.90657431  .00498275 -35593-5  88400-3 0  9990
2 43201  30.9207 268.1076 0965823 268.4221  80.5704 14.02629858  9177
1 43201U 18016A   18101.12008265  .00517562 -35681-5  88400-3 0  9999
2 43201  30.9130 266.9125 0966562 270.4840  78.4727 14.02821648  9200
1 43201U 18016A   18101.47588972  .00497310 -35625-5  88400-3 0  9991
2 43201  30.9139 264.9453 0963494 273.3030  75.7928 14.03139223  9255
1 43201U 18016A   18101.61818488  .00495786 -35601-5  88400-3 0  9994
2 43201  30.9144 264.1574 0962773 274.4793  74.6410 14.03273620  9270
1 43201U 18016A   18101.83161146  .00506656 -35573-5  88400-3 0  9997
2 43201  30.9151 262.9748 0962784 276.3123  72.8786 14.03477327  9307
1 43201U 18016A   18102.47168334  .00480036 -35284-5  88400-3 0  9996
2 43201  30.9243 259.4365 0958215 281.9852  67.1096 14.03997507  9397
1 43201U 18016A   18102.61398253  .00472007 -35220-5  88400-3 0  9996
2 43201  30.9250 258.6573 0956955 283.1213  66.4369 14.04120051  9412
1 43201U 18016A   18102.75619271  .00502087 -35252-5  88400-3 0  9994
2 43201  30.9198 257.8806 0959061 284.1876  65.4148 14.04235996  9431
1 43201U 18016A   18102.82729284  .00520557 -35242-5  88400-3 0  9999
2 43201  30.9190 257.4742 0960264 284.9575  64.6699 14.04305099  9444
1 43201U 18016A   18103.53807516  .00466972 -34783-5  88400-3 0  9992
2 43201  30.9228 253.5157 0953482 291.2174  58.2848 14.04803239  9548
1 43201U 18016A   18103.60927266  .00467213 -34755-5  88400-3 0  9993
2 43201  30.9216 253.1231 0953229 291.7761  58.4111 14.04865609  9555
1 43201U 18016A   18103.82247291  .00505719 -34680-5  88400-3 0  9991
2 43201  30.9189 251.9313 0955734 293.7039  56.6109 14.05059389  9585
1 43201U 18016A   18104.60393055  .00479519 -34037-5  88400-3 0  9992
2 43201  30.9256 247.6236 0950708 300.3695  50.1213 14.05689546  9696
1 43201U 18016A   18104.81710873  .00509044 -33916-5  88400-3 0  9998
2 43201  30.9219 246.4252 0952351 302.2446  48.9224 14.05889702  9728
1 43201U 18016A   18104.81711039  .00519510 -33946-5  88400-3 0  9995
2 43201  30.9178 246.3927 0953506 302.3666  48.7525 14.05820424  9726
1 43201U 18016A   18105.52726858  .00440874 -33206-5  88400-3 0  9994
2 43201  30.9214 242.4552 0943903 308.4568  43.4841 14.06409522  9823
1 43201U 18016A   18105.74024949  .00557105 -33187-5  88400-3 0  9994
2 43201  30.9090 241.2521 0953134 310.2672  41.7722 14.06559382  9854
1 43201U 18016A   18105.81124884  .00566539 -33120-5  88400-3 0  9999
2 43201  30.9087 240.8538 0953478 310.9011  41.2719 14.06636559  9862
1 43201U 18016A   18106.23709122  .00455137 -32534-5  88400-3 0  9999
2 43201  30.9152 238.5134 0942753 314.6268  37.7243 14.06984628  9922
1 43201U 18016A   18106.52104446  .00435719 -32124-5  88400-3 0  9998
2 43201  30.9245 236.9322 0939907 317.0728  36.0048 14.07198467  9969
1 43201U 18016A   18106.59200270  .00442910 -32091-5  88400-3 0  9991
2 43201  30.9203 236.5302 0940366 317.6443  35.5171 14.07257069  9974
1 43201U 18016A   18106.73391206  .00512808 -32027-5  88400-3 0  9990
2 43201  30.9141 235.7206 0946085 318.8381  34.4467 14.07382437  9993
1 43201U 18016A   18107.23047119  .00492308 -31347-5  88400-3 0  9993
2 43201  30.9191 232.9590 0942679 323.3094  30.3211 14.07765617 10067
1 43201U 18016A   18107.58517945  .00452027 -30890-5  88400-3 0  9996
2 43201  30.9185 230.9947 0937729 326.3458  28.0791 14.08056590 10118
1 43201U 18016A   18107.72700852  .00482088 -30733-5  88400-3 0  9999
2 43201  30.9168 230.1915 0939956 327.5910  27.0012 14.08180852 10132
1 43201U 18016A   18108.22330374  .00477518 -30064-5  88400-3 0  9992
2 43201  30.9168 227.4188 0938049 331.9194  23.0329 14.08521474 10202
1 43201U 18016A   18108.57781417  .00500753 -29594-5  88400-3 0  9992
2 43201  30.9153 225.4209 0938663 335.0041  20.7730 14.08840966 10251
1 43201U 18016A   18108.71955497  .00580696 -29427-5  88400-3 0  9998
2 43201  30.9139 224.6235 0943613 336.2234  19.7245 14.09107854 10277
1 43201U 18016A   18109.21551351  .00495472 -28666-5  88400-3 0  9996
2 43201  30.9157 221.8667 0935840 340.6433  15.4747 14.09380168 10347
1 43201U 18016A   18109.42818036  .00486413 -28330-5  88400-3 0  9998
2 43201  30.9182 220.6732 0934189 342.5277  14.5130 14.09576712 10378
